NORAD_CAT_ID,OBJECT_NAME,OBJECT_TYPE,EPOCH,MEAN_MOTION,ECCENTRICITY,INCLINATION,RA_OF_ASC_NODE,ARG_OF_PERICENTER,MEAN_ANOMALY,BSTAR,MEAN_MOTION_DOT,MEAN_MOTION_DDOT,TLE_LINE0,TLE_LINE1,TLE_LINE2,SEMIMAJOR_AXIS,PERIOD,APOGEE,PERIGEE,DECAYED
55766.0,STARLINK-5599,PAYLOAD,2024-04-16 14:21:13,14.98398726,0.0003036,70.0016,169.5028,258.2924,101.7895,-0.00098574,-0.00011856,0.0,0 STARLINK-5599,1 55766U 23028AB  24107.59807862 -.00011856  00000-0 -98574-3 0  9992,2 55766  70.0016 169.5028 0003036 258.2924 101.7895 14.98398726 62860,6949.98,96.103,573.955,569.735,0.0
55766.0,STARLINK-5599,PAYLOAD,2024-04-17 04:46:27,14.98337896,0.0002482,70.0015,167.9882,259.5108,100.5772,4.2894e-06,-4.2e-07,0.0,0 STARLINK-5599,1 55766U 23028AB  24108.19893184 -.00000042  00000-0  42894-5 0  9991,2 55766  70.0015 167.9882 0002482 259.5108 100.5772 14.98337896 62942,6950.168,96.106,573.759,570.308,0.0
55766.0,STARLINK-5599,PAYLOAD,2024-04-17 12:47:07,14.98357178,0.000215,70.0013,167.1465,248.5616,111.5314,-0.00028536,-3.498e-05,0.0,0 STARLINK-5599,1 55766U 23028AB  24108.53272477 -.00003498  00000-0 -28536-3 0  9999,2 55766  70.0013 167.1465 0002150 248.5616 111.5314 14.98357178 62997,6950.109,96.105,573.468,570.48,0.0
55766.0,STARLINK-5599,PAYLOAD,2024-04-17 20:47:48,14.98339057,0.0002612,70.0011,166.3034,268.3952,91.6908,-0.00011567,-1.473e-05,0.0,0 STARLINK-5599,1 55766U 23028AB  24108.86653062 -.00001473  00000-0 -11567-3 0  9995,2 55766  70.0011 166.3034 0002612 268.3952  91.6908 14.98339057 63044,6950.165,96.106,573.845,570.214,0.0
55766.0,STARLINK-5599,PAYLOAD,2024-04-18 03:12:20,14.98317088,0.0002251,70.002,165.6305,265.9943,94.0959,0.0001912,2.188e-05,0.0,0 STARLINK-5599,1 55766U 23028AB  24109.13357515  .00002188  00000-0  19120-3 0  9995,2 55766  70.0020 165.6305 0002251 265.9943  94.0959 14.98317088 63086,6950.233,96.108,573.662,570.533,0.0
55766.0,STARLINK-5599,PAYLOAD,2024-04-18 11:13:01,14.98320098,0.000251,70.0011,164.7903,259.2021,100.8856,-0.00010708,-1.37e-05,0.0,0 STARLINK-5599,1 55766U 23028AB  24109.46738376 -.00001370  00000-0 -10708-3 0  9996,2 55766  70.0011 164.7903 0002510 259.2021 100.8856 14.98320098 63145,6950.224,96.108,573.833,570.344,0.0
55766.0,STARLINK-5599,PAYLOAD,2024-04-19 04:50:30,14.98322315,0.000328,69.9993,162.9368,272.096,87.9823,-5.6061e-05,-7.62e-06,0.0,0 STARLINK-5599,1 55766U 23028AB  24110.20174257 -.00000762  00000-0 -56061-4 0  9999,2 55766  69.9993 162.9368 0003280 272.0960  87.9823 14.98322315 63240,6950.217,96.107,574.361,569.802,0.0
55766.0,STARLINK-5599,PAYLOAD,2024-04-19 12:51:10,14.9832647,0.0003062,70.0002,162.0956,270.2469,89.8339,-2.5735e-05,-4e-06,0.0,0 STARLINK-5599,1 55766U 23028AB  24110.53554047 -.00000400  00000-0 -25735-4 0  9997,2 55766  70.0002 162.0956 0003062 270.2469  89.8339 14.98326470 63306,6950.204,96.107,574.197,569.941,0.0
55766.0,STARLINK-5599,PAYLOAD,2024-04-20 04:52:30,14.98333272,0.0003031,69.9997,160.4112,272.797,87.2842,0.00023824,2.751e-05,0.0,0 STARLINK-5599,1 55766U 23028AB  24111.20312710  .00002751  00000-0  23824-3 0  9996,2 55766  69.9997 160.4112 0003031 272.7970  87.2842 14.98333272 63390,6950.183,96.107,574.154,569.941,0.0
55766.0,STARLINK-5599,PAYLOAD,2024-04-20 12:53:09,14.98347696,0.0002961,69.9997,159.5703,266.5156,93.5664,0.00033795,3.943e-05,0.0,0 STARLINK-5599,1 55766U 23028AB  24111.53691337  .00003943  00000-0  33795-3 0  9999,2 55766  69.9997 159.5703 0002961 266.5156  93.5664 14.98347696 63446,6950.138,96.106,574.061,569.945,0.0
55766.0,STARLINK-5599,PAYLOAD,2024-04-21 04:54:34,14.98302577,0.0003252,69.9984,157.8857,272.5287,87.55,-0.00033295,-4.061e-05,0.0,0 STARLINK-5599,1 55766U 23028AB  24112.20456131 -.00004061  00000-0 -33295-3 0  9994,2 55766  69.9984 157.8857 0003252 272.5287  87.5500 14.98302577 63541,6950.278,96.109,574.403,569.882,0.0
55766.0,STARLINK-5599,PAYLOAD,2024-04-21 12:55:14,14.98301348,0.0002825,70.0,157.0454,271.4543,88.6292,-0.00024038,-2.958e-05,0.0,0 STARLINK-5599,1 55766U 23028AB  24112.53836538 -.00002958  00000-0 -24038-3 0  9991,2 55766  70.0000 157.0454 0002825 271.4543  88.6292 14.98301348 63608,6950.281,96.109,574.11,570.183,0.0
55766.0,STARLINK-5599,PAYLOAD,2024-04-22 04:56:34,14.98329529,0.000319,69.9994,155.3619,274.4317,85.6477,-0.00026392,-3.241e-05,0.0,0 STARLINK-5599,1 55766U 23028AB  24113.20595251 -.00003241  00000-0 -26392-3 0  9991,2 55766  69.9994 155.3619 0003190 274.4317  85.6477 14.98329529 63691,6950.194,96.107,574.276,569.842,0.0
55766.0,STARLINK-5599,PAYLOAD,2024-04-22 09:44:58,14.98330435,0.0002592,69.9992,154.8538,268.6204,91.4658,-0.00016336,-2.042e-05,0.0,0 STARLINK-5599,1 55766U 23028AB  24113.40623024 -.00002042  00000-0 -16336-3 0  9998,2 55766  69.9992 154.8538 0002592 268.6204  91.4658 14.98330435 63737,6950.192,96.107,573.858,570.255,0.0
55766.0,STARLINK-5599,PAYLOAD,2024-04-22 12:57:14,14.98335712,0.0002755,70.0002,154.5199,275.5977,84.4867,-0.00014009,-1.764e-05,0.0,0 STARLINK-5599,1 55766U 23028AB  24113.53974576 -.00001764  00000-0 -14009-3 0  9998,2 55766  70.0002 154.5199 0002755 275.5977  84.4867 14.98335712 63745,6950.175,96.107,573.955,570.125,0.0
55766.0,STARLINK-5599,PAYLOAD,2024-04-23 12:59:14,14.98327656,0.0003224,69.9989,151.9951,276.4138,83.6654,0.00044879,5.266e-05,0.0,0 STARLINK-5599,1 55766U 23028AB  24114.54113761  .00005266  00000-0  44879-3 0  9998,2 55766  69.9989 151.9951 0003224 276.4138  83.6654 14.98327656 63893,6950.2,96.107,574.306,569.824,0.0
55766.0,STARLINK-5599,PAYLOAD,2024-04-24 13:01:14,14.98342878,0.0002804,69.9998,149.4711,266.8381,93.2457,0.00015772,1.79e-05,0.0,0 STARLINK-5599,1 55766U 23028AB  24115.54253302  .00001790  00000-0  15772-3 0  9993,2 55766  69.9998 149.4711 0002804 266.8381  93.2457 14.98342878 64044,6950.153,96.106,573.967,570.069,0.0
55766.0,STARLINK-5599,PAYLOAD,2024-04-25 05:02:36,14.9833292,0.0002464,70.0007,147.7879,253.8788,106.21,-8.2242e-05,-1.074e-05,0.0,0 STARLINK-5599,1 55766U 23028AB  24116.21014133 -.00001074  00000-0 -82242-4 0  9999,2 55766  70.0007 147.7879 0002464 253.8788 106.2100 14.98332920 64141,6950.184,96.107,573.761,570.336,0.0
55766.0,STARLINK-5599,PAYLOAD,2024-04-25 11:27:08,14.98328057,0.000289,69.9998,147.1137,268.7006,91.3821,-0.00015285,-1.916e-05,0.0,0 STARLINK-5599,1 55766U 23028AB  24116.47718604 -.00001916  00000-0 -15285-3 0  9998,2 55766  69.9998 147.1137 0002890 268.7006  91.3821 14.98328057 64183,6950.199,96.107,574.073,570.055,0.0
55766.0,STARLINK-5599,PAYLOAD,2024-04-26 03:28:28,14.98334971,0.0003305,69.9988,145.4309,270.2701,89.8079,-4.9671e-05,-6.86e-06,0.0,0 STARLINK-5599,1 55766U 23028AB  24117.14477787 -.00000686  00000-0 -49671-4 0  9997,2 55766  69.9988 145.4309 0003305 270.2701  89.8079 14.98334971 64286,6950.178,96.107,574.34,569.745,0.0
55766.0,STARLINK-5599,PAYLOAD,2024-04-26 11:29:08,14.98337385,0.0003087,69.9991,144.5878,270.1382,89.9424,-6.0477e-07,-1e-06,0.0,0 STARLINK-5599,1 55766U 23028AB  24117.47857380 -.00000100  00000-0 -60477-6 0  9994,2 55766  69.9991 144.5878 0003087 270.1382  89.9424 14.98337385 64346,6950.17,96.107,574.181,569.89,0.0
55766.0,STARLINK-5599,PAYLOAD,2024-04-26 19:29:49,14.98334862,0.0003398,69.9991,143.7467,250.9248,109.1544,-9.8293e-06,-2.1e-06,0.0,0 STARLINK-5599,1 55766U 23028AB  24117.81237281 -.00000210  00000-0 -98293-5 0  9992,2 55766  69.9991 143.7467 0003398 250.9248 109.1544 14.98334862 64393,6950.178,96.107,574.405,569.681,0.0
55766.0,STARLINK-5599,PAYLOAD,2024-04-27 03:30:29,14.98329029,0.0003209,69.999,142.9053,272.0182,88.061,0.00013789,1.553e-05,0.0,0 STARLINK-5599,1 55766U 23028AB  24118.14617444  .00001553  00000-0  13789-3 0  9996,2 55766  69.9990 142.9053 0003209 272.0182  88.0610 14.98329029 64430,6950.196,96.107,574.291,569.831,0.0
55766.0,STARLINK-5599,PAYLOAD,2024-04-27 11:31:09,14.98332388,0.0003178,69.9989,142.0633,271.0422,89.0372,0.00016608,1.889e-05,0.0,0 STARLINK-5599,1 55766U 23028AB  24118.47997187  .00001889  00000-0  16608-3 0  9992,2 55766  69.9989 142.0633 0003178 271.0422  89.0372 14.98332388 64498,6950.186,96.107,574.259,569.842,0.0
55766.0,STARLINK-5599,PAYLOAD,2024-04-28 03:32:30,14.98327034,0.0003093,69.9989,140.3801,270.8451,89.2354,-4.8717e-05,-6.74e-06,0.0,0 STARLINK-5599,1 55766U 23028AB  24119.14758076 -.00000674  00000-0 -48717-4 0  9999,2 55766  69.9989 140.3801 0003093 270.8451  89.2354 14.98327034 64585,6950.202,96.107,574.217,569.917,0.0
55766.0,STARLINK-5599,PAYLOAD,2024-04-28 11:33:11,14.98326703,0.0003102,69.9989,139.5386,271.1002,88.9802,-5.2861e-05,-7.24e-06,0.0,0 STARLINK-5599,1 55766U 23028AB  24119.48138098 -.00000724  00000-0 -52861-4 0  9993,2 55766  69.9989 139.5386 0003102 271.1002  88.9802 14.98326703 64643,6950.203,96.107,574.224,569.912,0.0
55766.0,STARLINK-5599,PAYLOAD,2024-04-28 17:57:43,14.98327927,0.0003093,69.9989,138.8653,271.3624,88.7181,-2.1693e-05,-3.52e-06,0.0,0 STARLINK-5599,1 55766U 23028AB  24119.74841975 -.00000352  00000-0 -21693-4 0  9993,2 55766  69.9989 138.8653 0003093 271.3624  88.7181 14.98327927 64684,6950.199,96.107,574.214,569.915,0.0
55766.0,STARLINK-5599,PAYLOAD,2024-04-29 05:10:39,14.98331465,0.0003097,69.9986,137.6869,271.2352,88.8453,-1.2439e-05,-2.41e-06,0.0,0 STARLINK-5599,1 55766U 23028AB  24120.21573720 -.00000241  00000-0 -12439-4 0  9992,2 55766  69.9986 137.6869 0003097 271.2352  88.8453 14.98331465 64740,6950.188,96.107,574.206,569.901,0.0
55766.0,STARLINK-5599,PAYLOAD,2024-04-29 11:35:11,14.98331713,0.0003093,69.9986,137.0138,270.6343,89.4461,-1.4484e-05,-2.66e-06,0.0,0 STARLINK-5599,1 55766U 23028AB  24120.48277694 -.00000266  00000-0 -14484-4 0  9991,2 55766  69.9986 137.0138 0003093 270.6343  89.4461 14.98331713 64799,6950.188,96.107,574.202,569.903,0.0
55766.0,STARLINK-5599,PAYLOAD,2024-04-29 17:59:43,14.98351486,0.0003278,69.9985,136.3402,273.0894,86.989,-0.00034886,-4.255e-05,0.0,0 STARLINK-5599,1 55766U 23028AB  24120.74981085 -.00004255  00000-0 -34886-3 0  9995,2 55766  69.9985 136.3402 0003278 273.0894  86.9890 14.98351486 64828,6950.126,96.106,574.27,569.713,0.0
